GLOBALSTAR M001         
1 25162U 98008A   25248.82626365 -.00000065  00000+0  23996-3 0  9993
2 25162  52.0022  98.5162 0002303  67.6015 305.4400 12.38216915253704
GLOBALSTAR M004         
1 25163U 98008B   25248.93118550 -.00000075  00000+0  15817-3 0  9992
2 25163  51.9995 167.8207 0003499 102.2975 334.6894 12.63401770271894
GLOBALSTAR M002         
1 25164U 98008C   25248.88703217 -.00000079  00000+0 -58518-4 0  9998
2 25164  52.0035  37.8607 0000679 316.6784  43.3982 11.61512026193448
GLOBALSTAR M003         
1 25165U 98008D   25248.87910502 -.00000165  00000+0 -80356-3 0  9995
2 25165  51.9969 305.0426 0008525  95.1426  78.6933 12.12062897243000
GLOBALSTAR M014         
1 25306U 98023A   25248.93983800 -.00000057  00000+0  38320-3 0  9990
2 25306  51.9862 319.2601 0001349 139.2436  33.4465 11.65481730200582
GLOBALSTAR M006         
1 25307U 98023B   25248.66160150 -.00000073  00000+0  45883-4 0  9997
2 25307  51.9971  15.4394 0002488 242.2883 219.7331 11.58175321226154
GLOBALSTAR M015         
1 25308U 98023C   25248.95259174 -.00000102  00000+0 -66261-3 0  9991
2 25308  51.9811 116.8882 0011823 218.3009 152.7457 11.48859537203363
GLOBALSTAR M008         
1 25309U 98023D   25248.96037630 -.00000069  00000+0  21658-3 0  9996
2 25309  51.9992 323.8746 0002351 355.3302 176.8979 12.36071530247830
